OBJECT_NAME,OBJECT_ID,EPOCH,MEAN_MOTION,ECCENTRICITY,INCLINATION,RA_OF_ASC_NODE,ARG_OF_PERICENTER,MEAN_ANOMALY,EPHEMERIS_TYPE,CLASSIFICATION_TYPE,NORAD_CAT_ID,ELEMENT_SET_NO,REV_AT_EPOCH,BSTAR,MEAN_MOTION_DOT,MEAN_MOTION_DDOT
CORVUS BC4,2018-099K,2026-07-06T01:01:04.106496,15.12655290,.00065524,97.4056,229.4713,301.1954,58.8634,0,U,43767,999,41525,.28196952E-3,.4869E-4,0
M2 PATHFINDER,2020-037E,2026-07-06T03:10:20.609472,15.04768787,.00131789,97.8157,18.5771,89.8579,270.4157,0,U,45727,999,32834,.20207524E-3,.279E-4,0
NETSAT-4,2020-068U,2026-07-05T23:34:10.146432,15.44528957,.00036933,97.8606,196.7410,232.9640,127.1270,0,U,46504,999,31867,.43722924E-3,.20221E-3,0
NETSAT-3,2020-068V,2026-07-06T00:03:44.039520,15.43375304,.00029748,97.8655,194.9565,257.5330,102.5584,0,U,46505,999,31858,.46612138E-3,.20739E-3,0
NETSAT-1,2020-068W,2026-07-05T23:26:23.667648,15.35097148,.00027402,97.8753,189.0353,318.8887,41.2148,0,U,46506,999,31818,.37755689E-3,.12779E-3,0
NETSAT-2,2020-068X,2026-07-05T23:52:53.809536,15.46865607,.00013812,97.8619,196.7205,271.2861,88.8229,0,U,46507,999,31864,.51988965E-3,.26078E-3,0
GREENCUBE (IO-117),2022-080E,2026-07-05T05:42:53.849664,6.42583233,.0008935,70.1429,291.9681,285.8124,74.1550,0,U,53109,999,9322,0,-.3E-7,0
SITRO-AIS 5 (KATYS),2023-091L,2026-07-06T04:06:46.069920,15.29924055,.00116129,97.5046,251.2558,43.2326,316.9824,0,U,57176,999,16724,.42239461E-3,.12191E-3,0
SITRO-AIS 6 (CHIRKIN),2023-091AC,2026-07-06T03:05:43.792512,15.26321038,.00120761,97.5052,250.2305,46.9536,313.2712,0,U,57192,999,16717,.41540312E-3,.10737E-3,0
SITRO-AIS 8 (ANOKHIN),2023-091AD,2026-07-06T03:42:49.535136,15.32690181,.00104637,97.5042,252.9059,39.4147,320.7854,0,U,57193,999,16735,.47125784E-3,.14834E-3,0
SITRO-AIS 7 (FARTUSHNIY),2023-091AE,2026-07-06T03:15:54.715680,15.25999179,.00120073,97.5049,250.0527,48.0380,312.1879,0,U,57194,999,16716,.41364625E-3,.10588E-3,0
SITRO-AIS 10 (BURDAEV),2023-091AK,2026-07-06T04:05:16.523232,15.39381294,.00057581,97.5066,258.1749,17.2837,342.8604,0,U,57199,999,16768,.54827326E-3,.21395E-3,0
SITRO-AIS 9 (SHCHUKIN),2023-091AM,2026-07-06T03:18:30.085344,15.38872508,.00060303,97.5065,257.8566,17.4991,342.6461,0,U,57201,999,16766,.55212585E-3,.21191E-3,0
SITRO-AIS 12 (SMIRENNIY),2023-091AQ,2026-07-06T06:07:02.212608,15.39170529,.00055161,97.5078,258.4556,10.8880,349.2484,0,U,57204,999,16770,.5275203E-3,.20437E-3,0
SITRO-AIS 11 (SHEFFER),2023-091AU,2026-07-06T03:11:29.510880,15.39603897,.00054342,97.5076,258.5894,10.9862,349.1501,0,U,57208,999,16770,.53662845E-3,.2109E-3,0
SITRO-AIS 25,2024-039R,2026-07-06T06:27:57.220992,14.93612789,.01422468,95.3897,248.2058,261.1423,97.3675,0,U,59066,999,12757,.20186097E-3,.2564E-4,0
SITRO-AIS 26,2024-039S,2026-07-06T06:33:42.114240,14.93403870,.01426426,95.3897,248.1022,261.7514,96.7515,0,U,59067,999,12756,.18369334E-3,.2318E-4,0
SITRO-AIS 27,2024-039T,2026-07-06T07:19:35.550048,14.93824477,.01417578,95.3896,248.4047,260.1618,98.3579,0,U,59068,999,12759,.23276966E-3,.2975E-4,0
SITRO-AIS 28,2024-039U,2026-07-06T05:10:01.668576,14.93860036,.01416563,95.3898,248.3915,260.3395,98.1805,0,U,59071,999,12758,.17533199E-3,.2233E-4,0
GRBBETA,2024-128C,2026-07-06T03:13:23.335104,15.06765581,.00382219,61.9891,149.7836,138.6589,221.7409,0,U,60237,999,10912,.28014616E-3,.404E-4,0
OOV-CUBE (TUBSAT-30),2024-128F,2026-07-06T03:38:30.625440,15.02848391,.00422378,61.9939,159.4402,137.9617,222.4729,0,U,60240,999,10896,.18541753E-3,.233E-4,0
ROBUSTA-3A (MEDITERRANEE),2024-128J,2026-07-06T04:25:03.161568,15.11898705,.00390983,61.9857,141.0534,131.8294,228.6151,0,U,60243,999,10929,.44874967E-3,.7645E-4,0
LASARSAT,2024-247Q,2026-07-05T23:04:40.365120,15.47577253,.00064314,44.9730,156.6246,98.3595,261.8025,0,U,62391,999,8622,.72466866E-3,.38027E-3,0
CROCUBE,2024-247T,2026-07-05T08:31:43.923072,15.49608608,.0006223,44.9708,157.0633,99.0627,261.0968,0,U,62394,999,8616,.11046E-2,.62671E-3,0
FORESAIL-1 PRIME,2025-276DS,2026-07-06T04:03:09.946368,15.18883949,.00035048,97.4189,260.0938,63.9521,296.2074,0,U,66778,999,3328,.26147531E-3,.5387E-4,0
KNACKSAT-2,1998-067XZ,2026-07-05T15:53:50.159040,15.61685266,.00082788,51.6260,201.4339,294.1874,65.8254,0,U,67683,999,2316,.6954593E-3,.61191E-3,0
