KNACKSAT-2              
1 67683U 98067XZ  26186.66238610  .00061191  00000+0  69546-3 0  9995
2 67683  51.6260 201.4339 0008278 294.1874  65.8254 15.61685266 23162
CORVUS BC4              
1 43767U 18099K   26187.04240864  .00004869  00000+0  28197-3 0  9992
2 43767  97.4056 229.4713 0006552 301.1954  58.8634 15.12655290415256
M2 PATHFINDER           
1 45727U 20037E   26187.13218298  .00002790  00000+0  20208-3 0  9997
2 45727  97.8157  18.5771 0013178  89.8579 270.4157 15.04768787328348
NETSAT-4                
1 46504U 20068U   26186.98206188  .00020221  00000+0  43723-3 0  9998
2 46504  97.8606 196.7410 0003693 232.9640 127.1270 15.44528957318677
NETSAT-3                
1 46505U 20068V   26187.00259305  .00020739  00000+0  46612-3 0  9996
2 46505  97.8655 194.9565 0002974 257.5330 102.5584 15.43375304318583
NETSAT-1                
1 46506U 20068W   26186.97666282  .00012779  00000+0  37756-3 0  9992
2 46506  97.8753 189.0353 0002740 318.8887  41.2148 15.35097148318181
NETSAT-2                
1 46507U 20068X   26186.99506724  .00026078  00000+0  51989-3 0  9990
2 46507  97.8619 196.7205 0001381 271.2861  88.8229 15.46865607318641
GREENCUBE (IO-117)      
1 53109U 22080E   26186.23812326 -.00000003  00000+0  00000+0 0  9992
2 53109  70.1429 291.9681 0008935 285.8124  74.1550  6.42583233 93228
SITRO-AIS 5 (KATYS)     
1 57176U 23091L   26187.17136655  .00012191  00000+0  42239-3 0  9995
2 57176  97.5046 251.2558 0011612  43.2326 316.9824 15.29924055167243
SITRO-AIS 6 (CHIRKIN)   
1 57192U 23091AC  26187.12897908  .00010737  00000+0  41540-3 0  9991
2 57192  97.5052 250.2305 0012076  46.9536 313.2712 15.26321038167172
SITRO-AIS 8 (ANOKHIN)   
1 57193U 23091AD  26187.15473999  .00014834  00000+0  47126-3 0  9993
2 57193  97.5042 252.9059 0010463  39.4147 320.7854 15.32690181167355
SITRO-AIS 7 (FARTUSHNIY)
1 57194U 23091AE  26187.13604995  .00010588  00000+0  41365-3 0  9995
2 57194  97.5049 250.0527 0012007  48.0380 312.1879 15.25999179167165
SITRO-AIS 10 (BURDAEV)  
1 57199U 23091AK  26187.17033013  .00021395  00000+0  54827-3 0  9996
2 57199  97.5066 258.1749 0005758  17.2837 342.8604 15.39381294167685
SITRO-AIS 9 (SHCHUKIN)  
1 57201U 23091AM  26187.13784821  .00021191  00000+0  55213-3 0  9990
2 57201  97.5065 257.8566 0006030  17.4991 342.6461 15.38872508167667
SITRO-AIS 12 (SMIRENNIY)
1 57204U 23091AQ  26187.25488672  .00020437  00000+0  52752-3 0  9998
2 57204  97.5078 258.4556 0005516  10.8880 349.2484 15.39170529167700
SITRO-AIS 11 (SHEFFER)  
1 57208U 23091AU  26187.13298045  .00021090  00000+0  53663-3 0  9990
2 57208  97.5076 258.5894 0005434  10.9862 349.1501 15.39603897167706
SITRO-AIS 25            
1 59066U 24039R   26187.26941228  .00002564  00000+0  20186-3 0  9998
2 59066  95.3897 248.2058 0142246 261.1423  97.3675 14.93612789127575
SITRO-AIS 26            
1 59067U 24039S   26187.27340410  .00002318  00000+0  18369-3 0  9993
2 59067  95.3897 248.1022 0142642 261.7514  96.7515 14.93403870127567
SITRO-AIS 27            
1 59068U 24039T   26187.30527257  .00002975  00000+0  23277-3 0  9997
2 59068  95.3896 248.4047 0141757 260.1618  98.3579 14.93824477127592
SITRO-AIS 28            
1 59071U 24039U   26187.21529709  .00002233  00000+0  17533-3 0  9990
2 59071  95.3898 248.3915 0141656 260.3395  98.1805 14.93860036127583
GRBBETA                 
1 60237U 24128C   26187.13429786  .00004040  00000+0  28015-3 0  9995
2 60237  61.9891 149.7836 0038221 138.6589 221.7409 15.06765581109120
OOV-CUBE (TUBSAT-30)    
1 60240U 24128F   26187.15174335  .00002330  00000+0  18542-3 0  9992
2 60240  61.9939 159.4402 0042237 137.9617 222.4729 15.02848391108961
ROBUSTA-3A (MEDITERRAN*)
1 60243U 24128J   26187.18406437  .00007645  00000+0  44875-3 0  9991
2 60243  61.9857 141.0534 0039098 131.8294 228.6151 15.11898705109299
LASARSAT                
1 62391U 24247Q   26186.96157830  .00038027  00000+0  72467-3 0  9990
2 62391  44.9730 156.6246 0006431  98.3595 261.8025 15.47577253 86221
CROCUBE                 
1 62394U 24247T   26186.35536948  .00062671  00000+0  11046-2 0  9994
2 62394  44.9708 157.0633 0006223  99.0627 261.0968 15.49608608 86169
FORESAIL-1 PRIME        
1 66778U 25276DS  26187.16886512  .00005387  00000+0  26148-3 0  9993
2 66778  97.4189 260.0938 0003504  63.9521 296.2074 15.18883949 33282
